<?xml version="1.0" encoding="UTF-8"?>
<oem id="CCSDS_OEM_VERS" version="2.0">
  <header>
    <CREATION_DATE>2023-03-27T10:16:24.181</CREATION_DATE>
    <ORIGINATOR>Dr Orbiteex</ORIGINATOR>
  </header>

  <body>
   <segment>
    <metadata>
      <OBJECT_NAME>JPSS2 NASA TLE</OBJECT_NAME>
      <OBJECT_ID>JPSS2 NASA TLE</OBJECT_ID>
      <CENTER_NAME>EARTH</CENTER_NAME>
      <REF_FRAME>ITRF2014</REF_FRAME>
      <TIME_SYSTEM>UTC</TIME_SYSTEM>
      <START_TIME>2023-03-27T10:15:49.0</START_TIME>
      <STOP_TIME>2023-03-29T10:15:49.0</STOP_TIME>
      <INTERPOLATION>LAGRANGE</INTERPOLATION>
      <INTERPOLATION_DEGREE>6</INTERPOLATION_DEGREE>
    </metadata>

    <data>
      <stateVector>
        <EPOCH>2023-03-29T04:15:49.0</EPOCH>
        <X units="km">4834.312098127698</X>
        <Y units="km">-4924.0942388377825</Y>
        <Z units="km">-2090.862984250136</Z>
        <X_DOT units="km/s">-2.685367919451319</X_DOT>
        <Y_DOT units="km/s">0.3386696097004467</Y_DOT>
        <Z_DOT units="km/s">-7.0275260158067665</Z_DOT>
      </stateVector>
      <stateVector>
        <EPOCH>2023-03-29T04:20:49.0</EPOCH>
        <X units="km">3818.9231736343995</X>
        <Y units="km">-4570.894368673589</Y>
        <Z units="km">-4066.0689394674478</Z>
        <X_DOT units="km/s">-4.01741145680709</X_DOT>
        <Y_DOT units="km/s">2.0064964983633926</Y_DOT>
        <Z_DOT units="km/s">-6.035428753437652</Z_DOT>
      </stateVector>
      <stateVector>
        <EPOCH>2023-03-29T04:25:49.0</EPOCH>
        <X units="km">2469.1877067506452</X>
        <Y units="km">-3734.6371308549324</Y>
        <Z units="km">-5654.858998784569</Z>
        <X_DOT units="km/s">-4.897955823995207</X_DOT>
        <Y_DOT units="km/s">3.5302952596903006</Y_DOT>
        <Z_DOT units="km/s">-4.47245458509781</Z_DOT>
      </stateVector>
      <stateVector>
        <EPOCH>2023-03-29T04:30:49.0</EPOCH>
        <X units="km">932.6026817661302</X>
        <Y units="km">-2483.5742415959126</Y>
        <Z units="km">-6707.353718701273</Z>
        <X_DOT units="km/s">-5.25582314108014</X_DOT>
        <Y_DOT units="km/s">4.746451514745369</Y_DOT>
        <Z_DOT units="km/s">-2.4887879888733124</Z_DOT>
      </stateVector>
      <stateVector>
        <EPOCH>2023-03-29T04:35:49.0</EPOCH>
        <X units="km">-630.3322671465413</X>
        <Y units="km">-931.2281968413864</Y>
        <Z units="km">-7124.75979256703</Z>
        <X_DOT units="km/s">-5.075721361286496</X_DOT>
        <Y_DOT units="km/s">5.519335386976901</Y_DOT>
        <Z_DOT units="km/s">-0.27201480746198</Z_DOT>
      </stateVector>
      <stateVector>
        <EPOCH>2023-03-29T04:40:49.0</EPOCH>
        <X units="km">-2062.786148568058</X>
        <Y units="km">774.1269410341962</Y>
        <Z units="km">-6868.003307356839</Z>
        <X_DOT units="km/s">-4.3967308138945524</X_DOT>
        <Y_DOT units="km/s">5.7548745714386085</Y_DOT>
        <Z_DOT units="km/s">1.9702851779599067</Z_DOT>
      </stateVector>
      <stateVector>
        <EPOCH>2023-03-29T04:45:49.0</EPOCH>
        <X units="km">-3227.08940240244</X>
        <Y units="km">2463.520759233716</Y>
        <Z units="km">-5961.060721981138</Z>
        <X_DOT units="km/s">-3.3061694727290005</X_DOT>
        <Y_DOT units="km/s">5.410524325646587</Y_DOT>
        <Z_DOT units="km/s">4.028341869559413</Z_DOT>
      </stateVector>
      <stateVector>
        <EPOCH>2023-03-29T04:50:49.0</EPOCH>
        <X units="km">-4017.8282763709353</X>
        <Y units="km">3963.7685576939953</Y>
        <Z units="km">-4488.940030410022</Z>
        <X_DOT units="km/s">-1.9298542714325788</X_DOT>
        <Y_DOT units="km/s">4.501393507328003</Y_DOT>
        <Z_DOT units="km/s">5.708028059370497</Z_DOT>
      </stateVector>
      <stateVector>
        <EPOCH>2023-03-29T04:55:49.0</EPOCH>
        <X units="km">-4371.532739899576</X>
        <Y units="km">5115.116663089482</Y>
        <Z units="km">-2590.3274702009485</Z>
        <X_DOT units="km/s">-0.4191799708309557</X_DOT>
        <Y_DOT units="km/s">3.101683943592781</Y_DOT>
        <Z_DOT units="km/s">6.848490906700371</Z_DOT>
      </stateVector>
      <stateVector>
        <EPOCH>2023-03-29T05:00:49.0</EPOCH>
        <X units="km">-4272.048131215468</X>
        <Y units="km">5788.449622193942</Y>
        <Z units="km">-445.10430570022066</Z>
        <X_DOT units="km/s">1.0646298358617783</X_DOT>
        <Y_DOT units="km/s">1.3401226198256422</Y_DOT>
        <Z_DOT units="km/s">7.338428346667525</Z_DOT>
      </stateVector>
      <stateVector>
        <EPOCH>2023-03-29T05:05:49.0</EPOCH>
        <X units="km">-3750.88138916791</X>
        <Y units="km">5900.102589174843</Y>
        <Z units="km">1742.5321051466915</Z>
        <X_DOT units="km/s">2.3680079060790553</X_DOT>
        <Y_DOT units="km/s">-0.611482222989553</Y_DOT>
        <Z_DOT units="km/s">7.128672824120893</Z_DOT>
      </stateVector>
      <stateVector>
        <EPOCH>2023-03-29T05:10:49.0</EPOCH>
        <X units="km">-2882.301443960355</X>
        <Y units="km">5422.265260901943</Y>
        <Z units="km">3763.8265040747306</Z>
        <X_DOT units="km/s">3.3621044799833335</X_DOT>
        <Y_DOT units="km/s">-2.555935782817149</Y_DOT>
        <Z_DOT units="km/s">6.238403151434834</Z_DOT>
      </stateVector>
      <stateVector>
        <EPOCH>2023-03-29T05:15:49.0</EPOCH>
        <X units="km">-1773.72551397995</X>
        <Y units="km">4387.424444526425</Y>
        <Z units="km">5425.9069628397</Z>
        <X_DOT units="km/s">3.956709348268211</X_DOT>
        <Y_DOT units="km/s">-4.292184860786392</Y_DOT>
        <Z_DOT units="km/s">4.753356580580029</Z_DOT>
      </stateVector>
      <stateVector>
        <EPOCH>2023-03-29T05:20:49.0</EPOCH>
        <X units="km">-552.690275796006</X>
        <Y units="km">2886.1990816851344</Y>
        <Z units="km">6570.508546509257</Z>
        <X_DOT units="km/s">4.108817831144867</X_DOT>
        <Y_DOT units="km/s">-5.63724999853915</Y_DOT>
        <Z_DOT units="km/s">2.816387689674742</Z_DOT>
      </stateVector>
      <stateVector>
        <EPOCH>2023-03-29T05:25:49.0</EPOCH>
        <X units="km">647.8155259636112</X>
        <Y units="km">1058.9337620323324</Y>
        <Z units="km">7088.96278562791</Z>
        <X_DOT units="km/s">3.8249677543733402</X_DOT>
        <Y_DOT units="km/s">-6.445474501306439</Y_DOT>
        <Z_DOT units="km/s">0.6124549850893584</Z_DOT>
      </stateVector>
      <stateVector>
        <EPOCH>2023-03-29T05:30:49.0</EPOCH>
        <X units="km">1703.8379096404199</X>
        <Y units="km">-917.8388370650908</Y>
        <Z units="km">6932.176853168136</Z>
        <X_DOT units="km/s">3.157877806844171</X_DOT>
        <Y_DOT units="km/s">-6.623307604816563</Y_DOT>
        <Z_DOT units="km/s">-1.6493535219068436</Z_DOT>
      </stateVector>
      <stateVector>
        <EPOCH>2023-03-29T05:35:49.0</EPOCH>
        <X units="km">2513.2358232750153</X>
        <Y units="km">-2848.6213832415006</Y>
        <Z units="km">6115.030152465201</Z>
        <X_DOT units="km/s">2.198646766462241</X_DOT>
        <Y_DOT units="km/s">-6.139070549973701</Y_DOT>
        <Z_DOT units="km/s">-3.754835534457743</Z_DOT>
      </stateVector>
      <stateVector>
        <EPOCH>2023-03-29T05:40:49.0</EPOCH>
        <X units="km">3005.607491314118</X>
        <Y units="km">-4538.330511829667</Y>
        <Z units="km">4715.033880280973</Z>
        <X_DOT units="km/s">1.0657110487236379</X_DOT>
        <Y_DOT units="km/s">-5.027505054694333</Y_DOT>
        <Z_DOT units="km/s">-5.503820047892414</Z_DOT>
      </stateVector>
      <stateVector>
        <EPOCH>2023-03-29T05:45:49.0</EPOCH>
        <X units="km">3148.5284112785835</X>
        <Y units="km">-5812.185937710826</Y>
        <Z units="km">2865.3002155595655</Z>
        <X_DOT units="km/s">-0.10857825974472979</X_DOT>
        <Y_DOT units="km/s">-3.388468477751119</Y_DOT>
        <Z_DOT units="km/s">-6.728825265853088</Z_DOT>
      </stateVector>
      <stateVector>
        <EPOCH>2023-03-29T05:50:49.0</EPOCH>
        <X units="km">2949.510923256546</X>
        <Y units="km">-6534.207629937137</Y>
        <Z units="km">742.1383129654431</Z>
        <X_DOT units="km/s">-1.1928771605811668</X_DOT>
        <Y_DOT units="km/s">-1.378807621796165</Y_DOT>
        <Z_DOT units="km/s">-7.311903212716288</Z_DOT>
      </stateVector>
      <stateVector>
        <EPOCH>2023-03-29T05:55:49.0</EPOCH>
        <X units="km">2453.430648497617</X>
        <Y units="km">-6622.193165737812</Y>
        <Z units="km">-1451.850187692208</Z>
        <X_DOT units="km/s">-2.0718478755867453</X_DOT>
        <Y_DOT units="km/s">0.8029152672710075</Y_DOT>
        <Z_DOT units="km/s">-7.1973474901965995</Z_DOT>
      </stateVector>
      <stateVector>
        <EPOCH>2023-03-29T06:00:49.0</EPOCH>
        <X units="km">1735.6911984823496</X>
        <Y units="km">-6057.180620495512</Y>
        <Z units="km">-3507.544007552242</Z>
        <X_DOT units="km/s">-2.659198967119969</X_DOT>
        <Y_DOT units="km/s">2.937518282573589</Y_DOT>
        <Z_DOT units="km/s">-6.397745658400662</Z_DOT>
      </stateVector>
      <stateVector>
        <EPOCH>2023-03-29T06:05:49.0</EPOCH>
        <X units="km">892.0378822792503</X>
        <Y units="km">-4886.078706906608</Y>
        <Z units="km">-5229.69563173365</Z>
        <X_DOT units="km/s">-2.9066813025360303</X_DOT>
        <Y_DOT units="km/s">4.809034364588265</Y_DOT>
        <Z_DOT units="km/s">-4.992001856521538</Z_DOT>
      </stateVector>
      <stateVector>
        <EPOCH>2023-03-29T06:10:49.0</EPOCH>
        <X units="km">26.458192104630637</X>
        <Y units="km">-3217.2156739828115</Y>
        <Z units="km">-6455.5771232076295</Z>
        <X_DOT units="km/s">-2.807735413695979</X_DOT>
        <Y_DOT units="km/s">6.227484153185118</Y_DOT>
        <Z_DOT units="km/s">-3.1159367048297315</Z_DOT>
      </stateVector>
      
    </data>
   </segment>
  </body>
</oem>
